2022-019J               
1 51832U 22019J   26068.94700892  .00001770  00000+0  85342-4 0  9994
2 51832  97.3535 134.3032 0007898 206.0852 153.9986 15.19970869222725
SITRO-AIS 7 (FARTUSHNIY)
1 57194U 23091AE  26068.96108478  .00007668  00000+0  31715-3 0  9992
2 57194  97.5180 131.5020 0014093  95.9262 264.3582 15.24163112149156
