[{"OBJECT_NAME":"SITRO-AIS 7 (FARTUSHNIY)","OBJECT_ID":"2023-091AE","EPOCH":"2026-03-09T23:03:57.724992","MEAN_MOTION":15.24163112,"ECCENTRICITY":0.00140938,"INCLINATION":97.518,"RA_OF_ASC_NODE":131.502,"ARG_OF_PERICENTER":95.9262,"MEAN_ANOMALY":264.3582,"EPHEMERIS_TYPE":0,"CLASSIFICATION_TYPE":"U","NORAD_CAT_ID":57194,"ELEMENT_SET_NO":999,"REV_AT_EPOCH":14915,"BSTAR":0.00031715122,"MEAN_MOTION_DOT":7.668e-5,"MEAN_MOTION_DDOT":0},{"OBJECT_NAME":"OBJECT J","OBJECT_ID":"2022-019J","EPOCH":"2026-03-09T22:43:41.570688","MEAN_MOTION":15.19970869,"ECCENTRICITY":0.00078987,"INCLINATION":97.3535,"RA_OF_ASC_NODE":134.3032,"ARG_OF_PERICENTER":206.0852,"MEAN_ANOMALY":153.9986,"EPHEMERIS_TYPE":0,"CLASSIFICATION_TYPE":"U","NORAD_CAT_ID":51832,"ELEMENT_SET_NO":999,"REV_AT_EPOCH":22272,"BSTAR":8.5341526e-5,"MEAN_MOTION_DOT":1.77e-5,"MEAN_MOTION_DDOT":0}]
